NORAD_CAT_ID,OBJECT_NAME,OBJECT_TYPE,EPOCH,MEAN_MOTION,ECCENTRICITY,INCLINATION,RA_OF_ASC_NODE,ARG_OF_PERICENTER,MEAN_ANOMALY,BSTAR,MEAN_MOTION_DOT,MEAN_MOTION_DDOT,TLE_LINE0,TLE_LINE1,TLE_LINE2,SEMIMAJOR_AXIS,PERIOD,APOGEE,PERIGEE,DECAYED
55922.0,STARLINK-5863,PAYLOAD,2024-06-21 14:05:10,14.98328973,0.0002974,69.9992,83.0611,269.3942,90.6877,-8.4171e-05,-1.097e-05,0.0,0 STARLINK-5863,1 55922U 23037J   24173.58692237 -.00001097  00000-0 -84171-4 0  9991,2 55922  69.9992  83.0611 0002974 269.3942  90.6877 14.98328973 69708,6950.196,96.107,574.128,569.994,0.0
55922.0,STARLINK-5863,PAYLOAD,2024-06-21 22:05:50,14.98327634,0.0002981,69.9991,82.2194,270.331,89.7508,1.9701e-05,1.42e-06,0.0,0 STARLINK-5863,1 55922U 23037J   24173.92072112  .00000142  00000-0  19701-4 0  9998,2 55922  69.9991  82.2194 0002981 270.3310  89.7508 14.98327634 69751,6950.2,96.107,574.137,569.993,0.0
55922.0,STARLINK-5863,PAYLOAD,2024-06-22 04:30:22,14.98333928,0.0002978,69.9992,81.5461,270.7406,89.3411,4.4375e-05,4.37e-06,0.0,0 STARLINK-5863,1 55922U 23037J   24174.18775641  .00000437  00000-0  44375-4 0  9996,2 55922  69.9992  81.5461 0002978 270.7406  89.3411 14.98333928 70133,6950.181,96.107,574.116,569.976,0.0
55922.0,STARLINK-5863,PAYLOAD,2024-06-22 14:07:10,14.98333337,0.0002963,69.9991,80.5361,270.2675,89.8144,-4.2593e-05,-6.01e-06,0.0,0 STARLINK-5863,1 55922U 23037J   24174.58831795 -.00000601  00000-0 -42593-4 0  9998,2 55922  69.9991  80.5361 0002963 270.2675  89.8144 14.98333337 69856,6950.183,96.107,574.107,569.988,0.0
55922.0,STARLINK-5863,PAYLOAD,2024-06-22 22:07:50,14.98332106,0.0002916,69.9992,79.6945,269.5073,90.5752,8.5359e-05,9.26e-06,0.0,0 STARLINK-5863,1 55922U 23037J   24174.92211571  .00000926  00000-0  85359-4 0  9995,2 55922  69.9992  79.6945 0002916 269.5073  90.5752 14.98332106 69908,6950.186,96.107,574.078,570.025,0.0
55922.0,STARLINK-5863,PAYLOAD,2024-06-23 04:32:22,14.98337782,0.0002911,69.9992,79.0211,269.8422,90.2403,0.00010471,1.157e-05,0.0,0 STARLINK-5863,1 55922U 23037J   24175.18915092  .00001157  00000-0  10471-3 0  9992,2 55922  69.9992  79.0211 0002911 269.8422  90.2403 14.98337782 70282,6950.169,96.106,574.057,570.011,0.0
55922.0,STARLINK-5863,PAYLOAD,2024-06-23 12:33:03,14.9833065,0.0002911,69.9991,78.1796,269.4043,90.6782,-4.4295e-05,-6.21e-06,0.0,0 STARLINK-5863,1 55922U 23037J   24175.52295805 -.00000621  00000-0 -44295-4 0  9992,2 55922  69.9991  78.1796 0002911 269.4043  90.6782 14.98330650 70331,6950.191,96.107,574.079,570.033,0.0
55922.0,STARLINK-5863,PAYLOAD,2024-06-23 14:09:11,14.98329679,0.0002916,69.9991,78.0112,269.0892,90.9933,-6.0137e-05,-8.1e-06,0.0,0 STARLINK-5863,1 55922U 23037J   24175.58971898 -.00000810  00000-0 -60137-4 0  9994,2 55922  69.9991  78.0112 0002916 269.0892  90.9933 14.98329679 70009,6950.194,96.107,574.086,570.032,0.0
55922.0,STARLINK-5863,PAYLOAD,2024-06-23 22:09:51,14.98327742,0.0002938,69.9992,77.1696,269.4157,90.6666,5.0844e-05,5.14e-06,0.0,0 STARLINK-5863,1 55922U 23037J   24175.92351817  .00000514  00000-0  50844-4 0  9998,2 55922  69.9992  77.1696 0002938 269.4157  90.6666 14.98327742 70053,6950.2,96.107,574.107,570.023,0.0
55922.0,STARLINK-5863,PAYLOAD,2024-06-24 12:35:04,14.98329696,0.0002955,69.9992,75.6548,269.737,90.345,-3.2321e-05,-4.79e-06,0.0,0 STARLINK-5863,1 55922U 23037J   24176.52435803 -.00000479  00000-0 -32321-4 0  9995,2 55922  69.9992  75.6548 0002955 269.7370  90.3450 14.98329696 70486,6950.194,96.107,574.113,570.005,0.0
55922.0,STARLINK-5863,PAYLOAD,2024-06-24 14:11:12,14.98329555,0.0002964,69.9991,75.4864,269.7746,90.3073,-4.3518e-05,-6.12e-06,0.0,0 STARLINK-5863,1 55922U 23037J   24176.59111834 -.00000612  00000-0 -43518-4 0  9996,2 55922  69.9991  75.4864 0002964 269.7746  90.3073 14.98329555 70150,6950.194,96.107,574.119,569.999,0.0
55922.0,STARLINK-5863,PAYLOAD,2024-06-24 22:11:52,14.98330385,0.0002998,69.9992,74.6447,269.9924,90.0891,2.761e-05,2.36e-06,0.0,0 STARLINK-5863,1 55922U 23037J   24176.92491650  .00000236  00000-0  27610-4 0  9995,2 55922  69.9992  74.6447 0002998 269.9924  90.0891 14.98330385 70200,6950.192,96.107,574.14,569.973,0.0
55922.0,STARLINK-5863,PAYLOAD,2024-06-25 04:36:24,14.98335314,0.0002992,69.9992,73.9714,269.8552,90.2265,3.1921e-05,2.88e-06,0.0,0 STARLINK-5863,1 55922U 23037J   24177.19195281  .00000288  00000-0  31921-4 0  9993,2 55922  69.9992  73.9714 0002992 269.8552  90.2265 14.98335314 70584,6950.176,96.107,574.121,569.962,0.0
55922.0,STARLINK-5863,PAYLOAD,2024-06-25 22:13:53,14.98329656,0.0003034,69.9992,72.1198,270.4108,89.6703,8.6168e-05,9.35e-06,0.0,0 STARLINK-5863,1 55922U 23037J   24177.92631449  .00000935  00000-0  86168-4 0  9997,2 55922  69.9992  72.1198 0003034 270.4108  89.6703 14.98329656 70350,6950.194,96.107,574.168,569.95,0.0
55922.0,STARLINK-5863,PAYLOAD,2024-06-26 03:02:17,14.98338814,0.0003025,69.9993,71.6148,270.6473,89.4339,0.00013822,1.557e-05,0.0,0 STARLINK-5863,1 55922U 23037J   24178.12658677  .00001557  00000-0  13822-3 0  9999,2 55922  69.9993  71.6148 0003025 270.6473  89.4339 14.98338814 70389,6950.166,96.106,574.133,569.928,0.0
55922.0,STARLINK-5863,PAYLOAD,2024-06-26 17:27:30,14.98332752,0.0002917,69.9994,70.1003,269.1572,90.9253,-3.6034e-05,-5.23e-06,0.0,0 STARLINK-5863,1 55922U 23037J   24178.72743335 -.00000523  00000-0 -36034-4 0  9996,2 55922  69.9994  70.1003 0002917 269.1572  90.9253 14.98332752 70811,6950.184,96.107,574.077,570.022,0.0
55922.0,STARLINK-5863,PAYLOAD,2024-06-27 03:04:19,14.98317734,0.0002883,69.9995,69.0909,271.0864,88.9965,0.00027624,3.204e-05,0.0,0 STARLINK-5863,1 55922U 23037J   24179.12799826  .00003204  00000-0  27624-3 0  9998,2 55922  69.9995  69.0909 0002883 271.0864  88.9965 14.98317734 70878,6950.231,96.108,574.1,570.092,0.0
55922.0,STARLINK-5863,PAYLOAD,2024-06-27 09:28:53,14.98235277,0.000233,70.0007,68.417,272.078,88.0112,0.0016796,0.00019955,0.0,0 STARLINK-5863,1 55922U 23037J   24179.39506678  .00019955  00000-0  16796-2 0  9995,2 55922  70.0007  68.4170 0002330 272.0780  88.0112 14.98235277 70914,6950.486,96.113,573.97,570.731,0.0
55922.0,STARLINK-5863,PAYLOAD,2024-06-27 20:41:47,14.98328233,0.000278,70.0005,67.2383,267.6515,92.4325,1.0075e-05,2.7e-07,0.0,0 STARLINK-5863,1 55922U 23037J   24179.86235672  .00000027  00000-0  10075-4 0  9996,2 55922  70.0005  67.2383 0002780 267.6515  92.4325 14.98328233 70987,6950.198,96.107,573.996,570.131,0.0
55922.0,STARLINK-5863,PAYLOAD,2024-06-27 22:17:55,14.98329689,0.0002803,70.0008,67.0702,269.5655,90.5183,4.3473e-05,4.26e-06,0.0,0 STARLINK-5863,1 55922U 23037J   24179.92911492  .00000426  00000-0  43473-4 0  9995,2 55922  70.0008  67.0702 0002803 269.5655  90.5183 14.98329689 70656,6950.194,96.107,574.007,570.111,0.0
55922.0,STARLINK-5863,PAYLOAD,2024-06-28 03:06:16,14.98367804,0.0003225,69.9997,66.5659,259.039,101.0407,0.00036681,4.291e-05,0.0,0 STARLINK-5863,1 55922U 23037J   24180.12935776  .00004291  00000-0  36681-3 0  9996,2 55922  69.9997  66.5659 0003225 259.0390 101.0407 14.98367804 71024,6950.076,96.105,574.182,569.7,0.0
55922.0,STARLINK-5863,PAYLOAD,2024-06-28 09:30:50,14.98343295,0.0003262,70.0005,65.893,271.7903,88.2882,0.00010403,1.149e-05,0.0,0 STARLINK-5863,1 55922U 23037J   24180.39641685  .00001149  00000-0  10403-3 0  9991,2 55922  70.0005  65.8930 0003262 271.7903  88.2882 14.98343295 71068,6950.152,96.106,574.284,569.75,0.0
55922.0,STARLINK-5863,PAYLOAD,2024-06-28 20:43:48,14.98323888,0.0002976,70.0005,64.714,273.0476,87.0343,-3.5159e-05,-5.12e-06,0.0,0 STARLINK-5863,1 55922U 23037J   24180.86375356 -.00000512  00000-0 -35159-4 0  9993,2 55922  70.0005  64.7140 0002976 273.0476  87.0343 14.98323888 71133,6950.212,96.107,574.145,570.008,0.0
55922.0,STARLINK-5863,PAYLOAD,2024-06-28 22:19:56,14.9832564,0.0002964,70.0004,64.5458,272.4154,87.6666,-1.9855e-05,-3.3e-06,0.0,0 STARLINK-5863,1 55922U 23037J   24180.93051202 -.00000330  00000-0 -19855-4 0  9995,2 55922  70.0004  64.5458 0002964 272.4154  87.6666 14.98325640 70800,6950.206,96.107,574.131,570.011,0.0
55922.0,STARLINK-5863,PAYLOAD,2024-06-29 01:32:12,14.98329804,0.0002898,70.0003,64.2094,271.6442,88.4385,1.8899e-05,1.33e-06,0.0,0 STARLINK-5863,1 55922U 23037J   24181.06402822  .00000133  00000-0  18899-4 0  9994,2 55922  70.0003  64.2094 0002898 271.6442  88.4385 14.98329804 71162,6950.193,96.107,574.073,570.044,0.0
55922.0,STARLINK-5863,PAYLOAD,2024-06-29 19:09:42,14.98313645,0.0002882,70.0009,62.3595,260.8241,99.2592,-0.00012756,-1.614e-05,0.0,0 STARLINK-5863,1 55922U 23037J   24181.79840560 -.00001614  00000-0 -12756-3 0  9991,2 55922  70.0009  62.3595 0002882 260.8241  99.2592 14.98313645 71271,6950.243,96.108,574.112,570.105,0.0
55922.0,STARLINK-5863,PAYLOAD,2024-06-29 22:21:58,14.98311648,0.0003353,69.9989,62.0191,271.8933,88.1842,-0.00014957,-1.876e-05,0.0,0 STARLINK-5863,1 55922U 23037J   24181.93192877 -.00001876  00000-0 -14957-3 0  9993,2 55922  69.9989  62.0191 0003353 271.8933  88.1842 14.98311648 70958,6950.25,96.108,574.445,569.784,0.0
55922.0,STARLINK-5863,PAYLOAD,2024-06-30 01:34:14,14.98312448,0.0003278,69.9991,61.6826,272.7,87.3784,-0.00012595,-1.595e-05,0.0,0 STARLINK-5863,1 55922U 23037J   24182.06544919 -.00001595  00000-0 -12595-3 0  9990,2 55922  69.9991  61.6826 0003278 272.7000  87.3784 14.98312448 70979,6950.247,96.108,574.39,569.834,0.0
55922.0,STARLINK-5863,PAYLOAD,2024-06-30 20:47:51,14.98319569,0.0003283,69.9995,59.6636,274.6431,85.4353,0.00010374,1.145e-05,0.0,0 STARLINK-5863,1 55922U 23037J   24182.86656263  .00001145  00000-0  10374-3 0  9996,2 55922  69.9995  59.6636 0003283 274.6431  85.4353 14.98319569 71438,6950.225,96.108,574.372,569.808,0.0
55922.0,STARLINK-5863,PAYLOAD,2024-06-30 22:23:58,14.98324347,0.0003285,69.9992,59.4948,270.4091,89.6692,3.6193e-05,3.39e-06,0.0,0 STARLINK-5863,1 55922U 23037J   24182.93332162  .00000339  00000-0  36193-4 0  9995,2 55922  69.9992  59.4948 0003285 270.4091  89.6692 14.98324347 71103,6950.21,96.107,574.359,569.792,0.0
